SatCatId,ObjectName,LaunchYear,OrbitalPeriod,LaunchMass,StatusCode,Inclination,Status,UcsData,OrbitClassEstimated,LaunchSiteCountry,Owner,UseType,Purpose,LaunchVehicleClass,TLE1,TLE2,MeanMotion,Eccentricity,OrbitClass
54029,ASO-S,2022,99.23,888.0,+,98.27,Active,1,LEO,PRC,China,Government,Space Science,Long March,1 54029U 22129A   23276.59006052  .00000373  00000+0  10513-3 0  9998,2 54029  98.2700 280.9629 0013560 241.3586 118.6246 14.51101797 52144,14.51101797,0.001356,LEO
54031,COSMOS 2559 [GLONASS-K],2022,675.73,1415.0,+,64.72,Active,1,MEO,Russia,Russia/USSR,Commercial/Military,Navigation (Global or Regional Positioning),Soyuz,1 54031U 22130A   23276.25656282 -.00000088  00000+0  00000+0 0  9992,2 54031  64.7232 349.2027 0007644 222.1437 137.8545  2.13101474  7630,2.13101474,0.0007644,MEO
54033,ANGOSAT 2,2022,1436.09,2150.0,+,0.02,Active,1,GSO,Kazakhstan,Angola,Government,Communications,Proton,1 54033U 22131A   23276.51068751  .00000127  00000+0  00000+0 0  9995,2 54033   0.0174 189.3355 0001412  91.9580 297.5127  1.00272529  3568,1.00272529,0.0001412,GEO
54035,HJ-2E,2022,94.51,1000.0,+,97.39,Active,1,LEO,PRC,China,Government,Earth Observation,Long March,1 54035U 22132A   23276.55826972  .00017308  00000+0  72190-3 0  9991,2 54035  97.3917 281.8867 0006752 188.1691 171.9437 15.23725665 54136,15.23725665,0.0006752,LEO
54042,YAOGAN-36 02A,2022,94.39,300.0,+,35.0,Active,1,LEO,PRC,China,Military,Earth Observation,Long March,1 54042U 22133A   23276.51304076  .00004893  00000+0  18862-3 0  9993,2 54042  35.0015 215.7585 0018821 297.6291  62.2514 15.25542733 54039,15.25542733,0.0018821,LEO
54043,YAOGAN-36 02B,2022,94.53,300.0,+,35.0,Active,1,LEO,PRC,China,Military,Earth Observation,Long March,1 54043U 22133B   23276.51985840  .00019596  00000+0  80172-3 0  9997,2 54043  34.9971 217.7139 0013758 277.7333  82.1819 15.23375657 54010,15.23375657,0.0013758,LEO
54045,YAOGAN-36 02C,2022,94.52,300.0,+,35.0,Active,1,LEO,PRC,China,Military,Earth Observation,Long March,1 54045U 22133D   23276.51628792  .00025687  00000+0  10490-2 0  9992,2 54045  34.9958 217.6651 0003209 176.3701 183.7037 15.23478337 54017,15.23478337,0.0003209,LEO
54048,EUTELSAT HOTBIRD 13F,2022,1436.1,4500.0,+,0.09,Active,1,GSO,USA,EUTELSAT,Commercial,Communications,Falcon,1 54048U 22134A   23276.29374017  .00000078  00000+0  00000+0 0  9999,2 54048   0.0860 286.7925 0005152 337.1413 226.5647  1.00271713  3547,1.00271713,0.0005152,GEO
54051,STARLINK-5195,2022,95.44,260.0,+,53.22,Active,1,LEO,USA,USA,Commercial,Communications,Falcon,1 54051U 22136A   23276.56369319  .00003508  00000+0  23837-3 0  9992,2 54051  53.2170  11.3197 0001521  83.0024 277.1141 15.08844940 52769,15.0884494,0.0001521,LEO
54052,STARLINK-5189,2022,95.44,260.0,+,53.22,Active,1,LEO,USA,USA,Commercial,Communications,Falcon,1 54052U 22136B   23276.44956095  .00017112  00000+0  10900-2 0  9995,2 54052  53.2175 331.3992 0001710  83.5918 276.5269 15.08860811 53311,15.08860811,0.000171,LEO
54053,STARLINK-5176,2022,95.44,260.0,+,53.22,Active,1,LEO,USA,USA,Commercial,Communications,Falcon,1 54053U 22136C   23276.56000875  .00033389  00000+0  21046-2 0  9992,2 54053  53.2181  11.2964 0001517  73.9247 286.1912 15.08865533 52761,15.08865533,0.0001517,LEO
54054,STARLINK-5163,2022,95.44,260.0,+,53.22,Active,1,LEO,USA,USA,Commercial,Communications,Falcon,1 54054U 22136D   23276.55263906  .00009427  00000+0  60944-3 0  9995,2 54054  53.2188  11.2503 0001634  76.7999 283.3176 15.08850479 52767,15.08850479,0.0001634,LEO
54055,STARLINK-5158,2022,95.44,260.0,+,53.22,Active,1,LEO,USA,USA,Commercial,Communications,Falcon,1 54055U 22136E   23276.55632365  .00001325  00000+0  10130-3 0  9996,2 54055  53.2183  11.2759 0001316  89.1062 271.0081 15.08837357 52761,15.08837357,0.0001316,LEO
54056,STARLINK-5226,2022,95.44,260.0,+,53.22,Active,1,LEO,USA,USA,Commercial,Communications,Falcon,1 54056U 22136F   23276.54990729  .00005792  00000+0  38156-3 0  9997,2 54056  53.2180  11.2342 0001342  90.0966 270.0179 15.08855918 52760,15.08855918,0.0001342,LEO
54058,STARLINK-5167,2022,95.44,260.0,+,53.22,Active,1,LEO,USA,USA,Commercial,Communications,Falcon,1 54058U 22136H   23276.54158346  .00002522  00000+0  17643-3 0  9996,2 54058  53.2183  11.1785 0001509  85.3502 274.7662 15.08847070 52761,15.0884707,0.0001509,LEO
54059,STARLINK-5173,2022,95.44,260.0,+,53.22,Active,1,LEO,USA,USA,Commercial,Communications,Falcon,1 54059U 22136J   23276.54527173  .00014333  00000+0  91647-3 0  9994,2 54059  53.2183  11.2049 0001680  76.8578 283.2602 15.08853912 52765,15.08853912,0.000168,LEO
54060,STARLINK-5169,2022,95.33,260.0,+,53.22,Active,1,LEO,USA,USA,Commercial,Communications,Falcon,1 54060U 22136K   23276.47904163  .00025260  00000+0  15288-2 0  9993,2 54060  53.2171 341.5470 0001434  96.7823 263.3333 15.10492465 53173,15.10492465,0.0001434,LEO
54061,STARLINK-5209,2022,95.44,260.0,+,53.22,Active,1,LEO,USA,USA,Commercial,Communications,Falcon,1 54061U 22136L   23276.43618872  .00002591  00000+0  18079-3 0  9993,2 54061  53.2174 336.2449 0001144  92.5427 267.5696 15.08847715 53241,15.08847715,0.0001144,LEO
54062,STARLINK-5170,2022,95.44,260.0,+,53.22,Active,1,LEO,USA,USA,Commercial,Communications,Falcon,1 54062U 22136M   23276.53789393  .00002361  00000+0  16634-3 0  9992,2 54062  53.2181  11.1569 0001551  83.3720 276.7449 15.08851904 52767,15.08851904,0.0001551,LEO
54063,STARLINK-5225,2022,95.44,260.0,+,53.22,Active,1,LEO,USA,USA,Commercial,Communications,Falcon,1 54063U 22136N   23276.53421777  .00010507  00000+0  67705-3 0  9998,2 54063  53.2172  11.1372 0001237  93.9718 266.1415 15.08850777 52768,15.08850777,0.0001237,LEO
54064,STARLINK-5172,2022,95.44,260.0,+,53.22,Active,1,LEO,USA,USA,Commercial,Communications,Falcon,1 54064U 22136P   23276.41877782  .00000954  00000+0  78032-4 0  9998,2 54064  53.2176 326.9018 0001651  90.3524 269.7657 15.08848345 53376,15.08848345,0.0001651,LEO
54065,STARLINK-5187,2022,95.44,260.0,+,53.22,Active,1,LEO,USA,USA,Commercial,Communications,Falcon,1 54065U 22136Q   23276.59308832  .00035064  00000+0  22090-2 0  9994,2 54065  53.2173  10.7926 0001392  89.6380 270.4772 15.08861073 52776,15.08861073,0.0001392,LEO
54066,STARLINK-5151,2022,95.44,260.0,+,53.22,Active,1,LEO,USA,USA,Commercial,Communications,Falcon,1 54066U 22136R   23276.53052687 -.00000080  00000+0  13038-4 0  9998,2 54066  53.2195  11.1127 0001548  96.4898 263.6271 15.08848761 52768,15.08848761,0.0001548,LEO
54067,STARLINK-5174,2022,95.44,260.0,+,53.22,Active,1,LEO,USA,USA,Commercial,Communications,Falcon,1 54067U 22136S   23276.58571879  .00035670  00000+0  22466-2 0  9998,2 54067  53.2169  10.7470 0001375  76.5087 283.6058 15.08862240 52777,15.0886224,0.0001375,LEO
54068,STARLINK-5222,2022,95.44,260.0,+,53.22,Active,1,LEO,USA,USA,Commercial,Communications,Falcon,1 54068U 22136T   23276.58940139  .00010458  00000+0  67398-3 0  9999,2 54068  53.2184  10.7677 0001358  88.2571 271.8577 15.08852523 52771,15.08852523,0.0001358,LEO
54069,STARLINK-5223,2022,95.44,260.0,+,53.22,Active,1,LEO,USA,USA,Commercial,Communications,Falcon,1 54069U 22136U   23276.57466418  .00031541  00000+0  19893-2 0  9994,2 54069  53.2178  10.6787 0001344  67.3376 292.7758 15.08870987 52779,15.08870987,0.0001344,LEO
54070,STARLINK-5181,2022,95.44,260.0,+,53.22,Active,1,LEO,USA,USA,Commercial,Communications,Falcon,1 54070U 22136V   23276.57834131  .00004467  00000+0  29847-3 0  9995,2 54070  53.2176  10.7003 0001387  82.7775 277.3375 15.08851490 52774,15.0885149,0.0001387,LEO
54071,STARLINK-5168,2022,95.44,260.0,+,53.22,Active,1,LEO,USA,USA,Commercial,Communications,Falcon,1 54071U 22136W   23276.59404665  .00022340  00000+0  14167-2 0  9991,2 54071  53.2173  10.7944 0001428  73.5355 286.5794 15.08855119 52773,15.08855119,0.0001428,LEO
54072,STARLINK-5144,2022,95.44,260.0,+,53.22,Active,1,LEO,USA,USA,Commercial,Communications,Falcon,1 54072U 22136X   23276.58203264  .00024022  00000+0  15214-2 0  9996,2 54072  53.2178  10.7291 0001660  72.1253 287.9920 15.08860869 52778,15.08860869,0.000166,LEO
54073,STARLINK-5146,2022,95.44,260.0,+,53.22,Active,1,LEO,USA,USA,Commercial,Communications,Falcon,1 54073U 22136Y   23276.57328471  .00020593  00000+0  13075-2 0  9996,2 54073  53.2178   5.6885 0001585  71.8841 288.2323 15.08859972 52848,15.08859972,0.0001585,LEO
54074,STARLINK-5192,2022,95.44,260.0,+,53.22,Active,1,LEO,USA,USA,Commercial,Communications,Falcon,1 54074U 22136Z   23276.50473887  .00012024  00000+0  77206-3 0  9999,2 54074  53.2186  10.9583 0001554  91.5725 268.5446 15.08850054 52768,15.08850054,0.0001554,LEO
54075,STARLINK-5212,2022,95.44,260.0,+,53.22,Active,1,LEO,USA,USA,Commercial,Communications,Falcon,1 54075U 22136AA  23276.56960055  .00015936  00000+0  10167-2 0  9991,2 54075  53.2178   5.6634 0001579  91.7963 268.3210 15.08854641 52843,15.08854641,0.0001579,LEO
54076,STARLINK-5201,2022,95.44,260.0,+,53.22,Active,1,LEO,USA,USA,Commercial,Communications,Falcon,1 54076U 22136AB  23276.56728810  .00005199  00000+0  34441-3 0  9995,2 54076  53.2183  10.6342 0001371  85.2496 274.8653 15.08852202 52777,15.08852202,0.0001371,LEO
54077,STARLINK-5171,2022,95.44,260.0,+,53.22,Active,1,LEO,USA,USA,Commercial,Communications,Falcon,1 54077U 22136AC  23276.50658423  .00015365  00000+0  98100-3 0  9990,2 54077  53.2174 351.0066 0001294  87.2929 272.8211 15.08854946 53046,15.08854946,0.0001294,LEO
54078,STARLINK-5138,2022,95.44,260.0,+,53.22,Active,1,LEO,USA,USA,Commercial,Communications,Falcon,1 54078U 22136AD  23276.53237770  .00010697  00000+0  68888-3 0  9995,2 54078  53.2162 351.1652 0001429  93.8901 266.2255 15.08856490 53040,15.0885649,0.0001429,LEO
54079,STARLINK-5175,2022,95.44,260.0,+,53.22,Active,1,LEO,USA,USA,Commercial,Communications,Falcon,1 54079U 22136AE  23276.56093283  .00003206  00000+0  21938-3 0  9991,2 54079  53.2185   1.3104 0001829  75.9870 284.1325 15.08850239 52908,15.08850239,0.0001829,LEO
